BEESAT-4                
1 41619U 16040W   23020.58546311  .00045311  00000+0  11345-2 0  9991
2 41619  97.1873  71.0868 0008733  60.7267 299.4852 15.39909132354022
CAS-2T & KS-1Q          
1 41847U 16066G   23021.15074895  .00002332  00000+0  35957-3 0  9991
2 41847  98.5243  90.3361 0360953 278.3416  77.7008 14.39055062325651
NAYIF-1 (EO-88)         
1 42017U 17008BX  23021.14858590  .00067855  00000+0  14017-2 0  9993
2 42017  97.2410  90.0601 0003406 170.8741 189.2571 15.45596699330554
ZHUHAI-1 02 (CAS-4B)    
1 42759U 17034B   23021.28146367  .00009164  00000+0  50537-3 0  9999
2 42759  43.0155 210.4017 0011267 236.1924 293.5253 15.14112878309342
ZHUHAI-1 01 (CAS-4A)    
1 42761U 17034D   23021.23829689  .00011825  00000+0  64595-3 0  9998
2 42761  43.0151 209.2624 0011349 239.7516 289.6469 15.14238810309348
MAX VALIER SAT          
1 42778U 17036P   23021.06580802  .00028233  00000+0  91503-3 0  9990
2 42778  97.1786  59.9335 0007880 271.1875  88.8465 15.31931717310153
RADFXSAT (FOX-1B)       
1 43017U 17073E   23021.14769924  .00008955  00000+0  65212-3 0  9998
2 43017  97.6516 271.3665 0241252 193.4744 165.9955 14.83507608279368
FOX-1D (AO-92)          
1 43137U 18004AC  23020.63560737  .00030348  00000+0  88318-3 0  9993
2 43137  97.3478  99.3105 0006223 318.8803  41.1970 15.35355000279589
DIWATA-2B               
1 43678U 18084H   23021.15541795  .00003276  00000+0  32315-3 0  9998
2 43678  97.9967 162.4543 0008493 291.0162  69.0136 14.92691267230329
ES'HAIL 2               
1 43700U 18090A   23020.29285632  .00000152  00000+0  00000+0 0  9992
2 43700   0.0137  81.3811 0001957 272.3675 256.8576  1.00271448 15207
FOX-1CLIFF (AO-95)      
1 43770U 18099N   23020.42604506  .00006768  00000+0  57960-3 0  9998
2 43770  97.5951  85.9869 0012868 268.5078  91.4670 14.97817318225471
ITASAT 1                
1 43786U 18099AE  23020.67636971  .00006624  00000+0  56777-3 0  9999
2 43786  97.5998  87.2484 0012668 259.1922 100.7875 14.97792103225553
JY1SAT (JO-97)          
1 43803U 18099AX  23020.67056588  .00008817  00000+0  73822-3 0  9995
2 43803  97.5966  87.0965 0012101 256.6752 103.3121 14.98613764225587
UWE-4                   
1 43880U 18111E   23020.30683184  .00008252  00000+0  66981-3 0  9994
2 43880  97.6608 287.8560 0011647 323.5485  36.4944 14.99838722222184
NEXUS (FO-99)           
1 43937U 19003F   23020.57336948  .00036820  00000+0  97519-3 0  9993
2 43937  97.1079  51.0814 0019193  93.9232 266.4208 15.38077972223252
PSAT2 (NO-104)          
1 44354U 19036R   23020.84548567  .00400236  49450-4  96337-3 0  9995
2 44354  28.5160  73.6216 0085256 323.6847  35.8002 15.88889653198577
JAISAT-1                
1 44419U 19038F   23021.18183465  .00026131  00000+0  11333-2 0  9992
2 44419  97.6611 359.0227 0019775  97.5390 262.8093 15.22157388196114
DUCHIFAT-3              
1 44854U 19089C   23021.06542580  .00011685  00000+0  85184-3 0  9999
2 44854  36.9640 248.6008 0006707 208.2641 308.5650 15.03179677170669
CAS-6 (TIANQIN 1)       
1 44881U 19093C   23021.27529248  .00001933  00000+0  24947-3 0  9998
2 44881  97.8758 102.1917 0014412 191.9636 168.1242 14.82065461167037
RS-44 & BREEZE-KM R/B   
1 44909U 19096E   23020.61546657  .00000039  00000+0  10666-3 0  9991
2 44909  82.5199  86.0090 0217756 171.7346 188.7438 12.79717821143330
ORBITAL FACTORY 2 (OF-2)
1 45113U 19071C   23020.49150246  .00149953  00000+0  13490-2 0  9999
2 45113  51.6318  59.2610 0004860 295.4861  64.5632 15.67213099167100
HUSKYSAT-1 (HO-107)     
1 45119U 19071J   23020.40306714  .00108917  00000+0  12039-2 0  9992
2 45119  51.6330  63.1406 0005143 276.8522  83.1887 15.62179123167034
BY70-2                  
1 45857U 20042B   23021.20285545  .00025574  00000+0  30854-2 0  9990
2 45857  97.9397 101.2718 0010072 126.7023 233.5042 14.83732679137691
SALSAT                  
1 46495U 20068K   23020.37026432  .00006526  00000+0  45307-3 0  9998
2 46495  97.7549 327.1702 0014040 261.2160  98.7476 15.05834602126813
BY70-3                  
1 46839U 20079N   23021.19848196  .00115667  00000+0  14522-2 0  9993
2 46839  97.1729  97.0676 0003710 263.3336 181.3880 15.59318099123936
RADFXSAT-2 (AO-109)     
1 47311U 21002C   23020.81658866  .00026733  00000+0  88978-3 0  9999
2 47311  60.6827 261.4638 0037934 101.9344 258.6003 15.30377841111674
UVSQ-SAT                
1 47438U 21006AB  23021.14222467  .00018356  00000+0  87520-3 0  9998
2 47438  97.4095  80.7382 0009772 234.1681 125.8647 15.19108399110281
DIY-1 (ARDUIQUBE)       
1 47963U 21022AH  23020.28338998  .00065114  00000+0  26269-2 0  9996
2 47963  97.5165 285.1826 0016427  99.6671 260.6423 15.24429509 99837
XW-3 (CAS-9)            
1 50466U 21131B   23021.22556232  .00000902  00000+0  30879-3 0  9994
2 50466  98.5641 103.2016 0004250 207.4874 152.6089 14.38637591 56225
TEVEL-3                 
1 50988U 22002E   23021.24187659  .00022780  00000+0  11041-2 0  9993
2 50988  97.4560  89.7626 0009389  36.4391  35.1502 15.18494161 56418
TEVEL-8                 
1 50989U 22002F   23021.12215185  .00021644  00000+0  10514-2 0  9999
2 50989  97.4579  89.6885 0009454  34.8144  32.3925 15.18425276 56392
TEVEL-5                 
1 50998U 22002Q   23021.25415564  .00023257  00000+0  11078-2 0  9994
2 50998  97.4560  90.0148 0010890  29.3850  41.2612 15.19083058 56435
TEVEL-6                 
1 50999U 22002R   23021.25325409  .00023240  00000+0  11067-2 0  9993
2 50999  97.4553  90.0110 0011015  27.6048  44.2599 15.19089967 56439
TEVEL-1                 
1 51013U 22002AF  23021.17956763  .00021900  00000+0  10629-2 0  9999
2 51013  97.4561  89.6638 0009390  34.6289  22.8956 15.18456183 56406
TEVEL-7                 
1 51062U 22002CG  23021.25655887  .00022644  00000+0  10993-2 0  9995
2 51062  97.4572  89.8008 0009607  32.5765  37.8233 15.18438880 56411
TEVEL-4                 
1 51063U 22002CH  23021.12472071  .00022511  00000+0  10938-2 0  9996
2 51063  97.4578  89.6613 0009531  33.9181  23.3432 15.18408790 56396
TEVEL-2                 
1 51069U 22002CP  23021.24394884  .00021918  00000+0  10628-2 0  9996
2 51069  97.4562  89.7423 0009356  34.8225  37.9204 15.18487566 56418
YUZGU 9 (RS3S)          
1 53308U 98067TT  23021.20273027  .00991995  48072-3  20309-2 0  9992
2 53308  51.6274 318.8362 0006792 151.4180 208.7203 15.98790425 28777
YUZGU 7 (RS1S)          
1 53309U 98067TU  23021.19791772  .01258089  89575-3  19506-2 0  9994
2 53309  51.6245 318.0267 0007215 156.0362 204.0986 16.03655765 28733
YUZGU 11 (RS5S)         
1 53310U 98067TV  23021.19343475  .01034136  53733-3  19779-2 0  9993
2 53310  51.6288 318.7749 0006345 153.5652 206.5683 16.00005557 28759
YUZGU 12 (RS6S)         
1 53311U 98067TW  23021.18261031  .02029748  37803-2  20024-2 0  9998
2 53311  51.6219 317.1495 0007543 168.2840 191.8352 16.11519828 28794
TSIOLKOVSKY-RYAZAN 1 (*)
1 53312U 98067TX  23021.28230297  .01211260  79343-3  20880-2 0  9997
2 53312  51.6261 317.8528 0006920 155.5919 204.5421 16.01849619 28736
TSIOLKOVSKY-RYAZAN 2 (*)
1 53313U 98067TY  23021.21022274  .01204542  78643-3  20483-2 0  9991
2 53313  51.6264 318.1274 0007258 154.6849 205.4518 16.02075027 28775
YUZGU 10 (RS4S)         
1 53321U 98067TZ  23021.11434751  .01124606  65106-3  21254-2 0  9995
2 53321  51.6289 318.9948 0006772 153.1052 207.0310 16.00233526 28751
RS29S (SXC3-2110 CYCLO*)
1 53373U 22096D   23021.20915593  .00031316  00000+0  11037-2 0  9999
2 53373  97.4275 286.7853 0001856  44.3585 108.0868 15.29220417 25152
RS32S (SXC3-212 MONITO*)
1 53374U 22096E   23021.20199075  .00029492  00000+0  10436-2 0  9993
2 53374  97.4266 286.7831 0001341  51.5550 100.9397 15.29101795 25155
RS34S (SXC3-218 KUZBAS*)
1 53375U 22096F   23021.22959400  .00025657  00000+0  92598-3 0  9991
2 53375  97.4275 286.7538 0001616  50.3984 101.1384 15.28485941 25159
RS23S (SXC3-21 UTMN)    
1 53376U 22096G   23021.22284015  .00026677  00000+0  95798-3 0  9993
2 53376  97.4279 286.7634 0001676  46.4440 104.6137 15.28641602 25152
RS28S (SXC3-214 MIET-A*)
1 53377U 22096H   23021.22560780  .00025214  00000+0  91008-3 0  9996
2 53377  97.4279 286.7621 0001541  48.8535 102.4042 15.28485977 25153
RS26S (KAI-1)           
1 53378U 22096J   23021.03908350  .00021706  00000+0  79378-3 0  9993
2 53378  97.4284 286.5436 0001237  49.5865  80.8538 15.28086774 25126
RS19S (SXC3-219 ISOI)   
1 53381U 22096M   23021.09999192  .00025458  00000+0  90394-3 0  9996
2 53381  97.4278 286.7552 0002626 191.5464 276.1327 15.29019638 25144
RS21S (CUBESX-HSE-2)    
1 53383U 22096P   23021.23354182  .00026078  00000+0  92297-3 0  9991
2 53383  97.4279 286.9047 0002910 196.5766 315.5096 15.29120463 25166
RS30S (SXC3-217 SIREN)  
1 53384U 22096Q   23021.23805603  .00023511  00000+0  84075-3 0  9995
2 53384  97.4271 286.8838 0002774 196.2095 282.8527 15.28803655 25161
RS20S (GEOSCAN-EDELVEIS)
1 53385U 22096R   23021.23318008  .00033003  00000+0  11256-2 0  9991
2 53385  97.4274 287.0378 0002846 197.1138 283.6631 15.30278097 25204
RS33S (SXC3-215 VIZARD) 
1 53386U 22096S   23021.24026578  .00037460  00000+0  12330-2 0  9996
2 53386  97.4271 287.1932 0003455 202.4149 313.5809 15.31400054 25209
CAS-5A (FO-118)         
1 54684U 22167C   23021.29626873  .00016138  00000+0  10039-2 0  9999
2 54684  97.5391 160.5553 0015404 117.4674 306.0344 15.09600460  6481
CAS-10                  
1 54816U 21035C   23020.96224393  .00213443  00000+0  17255-2 0  9998
2 54816  41.4826 332.1976 0005690 149.1639 210.9345 15.69337603  5186
